FGRST (GLAST)           
1 33053U 08029A   26068.68302971  .00004798  00000+0  18248-3 0  9994
2 33053  25.5809 175.0882 0007844 229.4432 130.5423 15.23332346980642
2024-203C               
1 61871U 24203C   26067.81773876  .00017593  00000+0  73309-3 0  9991
2 61871  97.4332 137.9023 0011476 346.2559  13.8364 15.23715458 73579
